[{"OBJECT_NAME":"PROTOMETHEE","OBJECT_ID":"2023-174BT","EPOCH":"2026-03-09T23:28:08.029344","MEAN_MOTION":15.30202663,"ECCENTRICITY":0.00088339,"INCLINATION":97.3826,"RA_OF_ASC_NODE":147.9552,"ARG_OF_PERICENTER":148.5993,"MEAN_ANOMALY":211.5776,"EPHEMERIS_TYPE":0,"CLASSIFICATION_TYPE":"U","NORAD_CAT_ID":58321,"ELEMENT_SET_NO":999,"REV_AT_EPOCH":12979,"BSTAR":0.00015715731,"MEAN_MOTION_DOT":4.52e-5,"MEAN_MOTION_DDOT":0},{"OBJECT_NAME":"STARLINK-32959","OBJECT_ID":"2025-076A","EPOCH":"2026-03-09T02:10:53.692608","MEAN_MOTION":15.27618112,"ECCENTRICITY":0.0001663,"INCLINATION":43.0013,"RA_OF_ASC_NODE":329.0575,"ARG_OF_PERICENTER":269.6925,"MEAN_ANOMALY":90.3736,"EPHEMERIS_TYPE":0,"CLASSIFICATION_TYPE":"U","NORAD_CAT_ID":63569,"ELEMENT_SET_NO":999,"REV_AT_EPOCH":5169,"BSTAR":0.0015507218,"MEAN_MOTION_DOT":0.00042708,"MEAN_MOTION_DDOT":0}]
